[{"OBJECT_NAME":"STARLINK-34739","OBJECT_ID":"2025-165L","EPOCH":"2026-03-09T18:01:24.829248","MEAN_MOTION":15.05645642,"ECCENTRICITY":0.00011746,"INCLINATION":97.602,"RA_OF_ASC_NODE":147.35,"ARG_OF_PERICENTER":27.7702,"MEAN_ANOMALY":332.3587,"EPHEMERIS_TYPE":0,"CLASSIFICATION_TYPE":"U","NORAD_CAT_ID":65066,"ELEMENT_SET_NO":999,"REV_AT_EPOCH":3480,"BSTAR":0.0004926159,"MEAN_MOTION_DOT":7.053e-5,"MEAN_MOTION_DDOT":0},{"OBJECT_NAME":"OKEAN-3","OBJECT_ID":"1991-039A","EPOCH":"2026-03-09T19:29:17.530944","MEAN_MOTION":15.0480588,"ECCENTRICITY":0.00139411,"INCLINATION":82.519,"RA_OF_ASC_NODE":336.7249,"ARG_OF_PERICENTER":337.9296,"MEAN_ANOMALY":22.1329,"EPHEMERIS_TYPE":0,"CLASSIFICATION_TYPE":"U","NORAD_CAT_ID":21397,"ELEMENT_SET_NO":999,"REV_AT_EPOCH":86505,"BSTAR":0.00031884915,"MEAN_MOTION_DOT":4.536e-5,"MEAN_MOTION_DDOT":0}]
